<table border="1" class="dataframe">
  <thead>
    <tr style="text-align: right;">
      <th>Airport Code</th>
      <th>Station Name</th>
      <th>METAR</th>
      <th>Summary</th>
      <th>Flight Rules</th>
      <th>Condition</th>
    </tr>
  </thead>
  <tbody>
    <tr>
      <td>KHHR</td>
      <td>Jack Northrop Field Hawthorne Municipal Airport</td>
      <td>KHHR 112053Z 25009KT 10SM CLR 29/16 A2992 RMK AO2 SLP129 T02890161 55010 $</td>
      <td>Winds WSW-250 at 9kt, Vis 10sm, Temp 29°C, Dew 16°C, Alt 29.92 inHg, Sky clear</td>
      <td>VFR</td>
      <td>Good</td>
    </tr>
    <tr>
      <td>KSBA</td>
      <td>Santa Barbara Municipal Airport</td>
      <td>KSBA 112053Z COR 22012G18KT 10SM CLR 28/16 A2990 RMK AO2 SLP125 T02830161 56012 $</td>
      <td>Winds SW-220 at 12kt gusting to 18kt, Vis 10sm, Temp 28°C, Dew 16°C, Alt 29.90 inHg, Sky clear</td>
      <td>VFR</td>
      <td>Good</td>
    </tr>
    <tr>
      <td>KSQL</td>
      <td>San Carlos Airport</td>
      <td>KSQL 112047Z 27010KT 10SM CLR 26/13 A2999</td>
      <td>Winds W-270 at 10kt, Vis 10sm, Temp 26°C, Dew 13°C, Alt 29.99 inHg, Sky clear</td>
      <td>VFR</td>
      <td>Good</td>
    </tr>
    <tr>
      <td>KTRK</td>
      <td>Truckee Tahoe Airport</td>
      <td>KTRK 112048Z 23008KT 230V280 10SM SCT085 23/04 A3021</td>
      <td>Winds SW-230 (variable 230 to 280) at 8kt, Vis 10sm, Temp 23°C, Dew 4°C, Alt 30.21 inHg, Scattered clouds at 8500ft</td>
      <td>VFR</td>
      <td>Good</td>
    </tr>
  </tbody>
</table>